0 FENGYUN 1C DEB
1 29790U 99025CG  13281.30332449  .00000377  00000-0  17120-3 0  8827
2 29790 099.0286 031.2163 0084365 059.9254 325.0781 14.25964704350320
0 FENGYUN 1C DEB
1 29790U 99025CG  13282.79723873  .00000362  00000-0  16503-3 0  8835
2 29790 099.0288 032.7551 0084279 055.6391 074.0309 14.25968034350538
0 FENGYUN 1C DEB
1 29790U 99025CG  13283.84737959  .00000390  00000-0  17629-3 0  8844
2 29790 099.0291 033.8368 0084230 052.6221 064.9012 14.25969559350684
0 FENGYUN 1C DEB
1 29790U 99025CG  13286.86348970  .00000464  00000-0  20620-3 0  8869
2 29790 099.0297 036.9439 0084077 043.9471 068.0626 14.25971502351118
0 FENGYUN 1C DEB
1 29790U 99025CG  13288.18762418  .00000634  00000-0  27516-3 0  8874
2 29790 099.0298 038.3081 0084016 040.1283 025.5075 14.25974043351301
0 FENGYUN 1C DEB
1 29790U 99025CG  13290.16243237  .00000532  00000-0  23381-3 0  8882
2 29790 099.0299 040.3427 0083931 034.4437 083.1966 14.25976183351587
0 FENGYUN 1C DEB
1 29790U 99025CG  13291.27235279  .00000538  00000-0  23646-3 0  8893
2 29790 099.0298 041.4863 0083878 031.2455 020.9889 14.25977551351748
0 FENGYUN 1C DEB
1 29790U 99025CG  13293.17936612  .00000617  00000-0  26809-3 0  8907
2 29790 099.0297 043.4511 0083800 025.7754 090.6597 14.25979540352015
0 FENGYUN 1C DEB
1 29790U 99025CG  13294.86283043  .00000645  00000-0  27968-3 0  8916
2 29790 099.0296 045.1857 0083711 020.9047 092.7928 14.25982452352252
